start=new Date('2021-12-05T00:00:00.000Z').valueOf();
sats=[{"NORAD_CAT_ID":"48666","OBJECT_NAME":"STARLINK-2666","MEAN_ANOMALY":"296.5380","OBJECT_ID":"2021-044AE","PERIOD":"95.593","OBJECT_TYPE":"PAYLOAD","DECAY_DATE":null,"EPHEMERIS_TYPE":"0","EPOCH":"2021-12-04T22:07:42.273984","MEAN_ELEMENT_THEORY":"SGP4","TIME_SYSTEM":"UTC","RCS_SIZE":"LARGE","BSTAR":"-0.00006284000000","PERIAPSIS":"545.945","CLASSIFICATION_TYPE":"U","REV_AT_EPOCH":"2935","TLE_LINE2":"2 48666  53.0550 255.7219 0001858  63.5799 296.5380 15.06393956 29351","INCLINATION":"53.0550","REF_FRAME":"TEME","CENTER_NAME":"EARTH","MEAN_MOTION_DDOT":"0.0000000000000","TLE_LINE1":"1 48666U 21044AE  21338.92201706 -.00001217  00000-0 -62840-4 0  9992","ARG_OF_PERICENTER":"63.5799","ECCENTRICITY":"0.00018580","APOAPSIS":"548.519","COUNTRY_CODE":"US","RA_OF_ASC_NODE":"255.7219","SITE":"AFETR","GP_ID":"191104597","LAUNCH_DATE":"2021-05-26","SEMIMAJOR_AXIS":"6925.367","FILE":"3232651","MEAN_MOTION":"15.06393956","ELEMENT_SET_NO":"999","MEAN_MOTION_DOT":"-0.00001217"},{"MEAN_ANOMALY":"293.8403","NORAD_CAT_ID":"48667","OBJECT_NAME":"STARLINK-2735","OBJECT_ID":"2021-044AF","PERIOD":"95.592","OBJECT_TYPE":"PAYLOAD","MEAN_ELEMENT_THEORY":"SGP4","RCS_SIZE":"LARGE","TIME_SYSTEM":"UTC","DECAY_DATE":null,"EPHEMERIS_TYPE":"0","EPOCH":"2021-12-04T22:30:17.008704","PERIAPSIS":"545.938","BSTAR":"0.00007747200000","INCLINATION":"53.0556","REF_FRAME":"TEME","CENTER_NAME":"EARTH","CLASSIFICATION_TYPE":"U","REV_AT_EPOCH":"2936","TLE_LINE2":"2 48667  53.0556 255.6472 0001862  66.2781 293.8403 15.06395603 29362","ECCENTRICITY":"0.00018620","MEAN_MOTION_DDOT":"0.0000000000000","TLE_LINE1":"1 48667U 21044AF  21338.93769686  .00000872  00000-0  77472-4 0  9991","ARG_OF_PERICENTER":"66.2781","APOAPSIS":"548.517","RA_OF_ASC_NODE":"255.6472","COUNTRY_CODE":"US","ELEMENT_SET_NO":"999","MEAN_MOTION_DOT":"0.00000872","GP_ID":"191105065","LAUNCH_DATE":"2021-05-26","SITE":"AFETR","MEAN_MOTION":"15.06395603","FILE":"3232651","SEMIMAJOR_AXIS":"6925.362"},{"COUNTRY_CODE":"US","RA_OF_ASC_NODE":"255.6683","APOAPSIS":"548.640","MEAN_MOTION_DOT":"0.00000730","ELEMENT_SET_NO":"999","FILE":"3232651","SEMIMAJOR_AXIS":"6925.358","MEAN_MOTION":"15.06396970","LAUNCH_DATE":"2021-05-26","GP_ID":"191105221","SITE":"AFETR","CENTER_NAME":"EARTH","REF_FRAME":"TEME","INCLINATION":"53.0558","REV_AT_EPOCH":"2936","TLE_LINE2":"2 48668  53.0558 255.6683 0002047  59.6632 300.4559 15.06396970 29361","CLASSIFICATION_TYPE":"U","ECCENTRICITY":"0.00020470","ARG_OF_PERICENTER":"59.6632","TLE_LINE1":"1 48668U 21044AG  21338.93402012  .00000730  00000-0  67906-4 0  9993","MEAN_MOTION_DDOT":"0.0000000000000","TIME_SYSTEM":"UTC","RCS_SIZE":"LARGE","MEAN_ELEMENT_THEORY":"SGP4","EPOCH":"2021-12-04T22:24:59.338368","EPHEMERIS_TYPE":"0","DECAY_DATE":null,"PERIAPSIS":"545.805","BSTAR":"0.00006790600000","MEAN_ANOMALY":"300.4559","OBJECT_NAME":"STARLINK-2738","NORAD_CAT_ID":"48668","OBJECT_TYPE":"PAYLOAD","PERIOD":"95.592","OBJECT_ID":"2021-044AG"},{"REV_AT_EPOCH":"2935","TLE_LINE2":"2 48669  53.0520 255.6896 0002042  66.5134 293.6069 15.06358230 29351","CLASSIFICATION_TYPE":"U","CENTER_NAME":"EARTH","REF_FRAME":"TEME","INCLINATION":"53.0520","ARG_OF_PERICENTER":"66.5134","TLE_LINE1":"1 48669U 21044AH  21338.93034068  .00006614  00000-0  46302-3 0  9999","MEAN_MOTION_DDOT":"0.0000000000000","ECCENTRICITY":"0.00020420","COUNTRY_CODE":"US","RA_OF_ASC_NODE":"255.6896","APOAPSIS":"548.756","SEMIMAJOR_AXIS":"6925.477","FILE":"3232651","MEAN_MOTION":"15.06358230","LAUNCH_DATE":"2021-05-26","GP_ID":"191104442","SITE":"AFETR","MEAN_MOTION_DOT":"0.00006614","ELEMENT_SET_NO":"999","OBJECT_NAME":"STARLINK-2707","NORAD_CAT_ID":"48669","MEAN_ANOMALY":"293.6069","OBJECT_TYPE":"PAYLOAD","PERIOD":"95.595","OBJECT_ID":"2021-044AH","EPOCH":"2021-12-04T22:19:41.434752","EPHEMERIS_TYPE":"0","DECAY_DATE":null,"TIME_SYSTEM":"UTC","RCS_SIZE":"LARGE","MEAN_ELEMENT_THEORY":"SGP4","BSTAR":"0.00046302000000","PERIAPSIS":"545.927"},{"INCLINATION":"53.0518","REF_FRAME":"TEME","CENTER_NAME":"EARTH","CLASSIFICATION_TYPE":"U","REV_AT_EPOCH":"2935","TLE_LINE2":"2 48670  53.0518 255.7054 0002024  65.6673 294.4527 15.06401859 29359","ECCENTRICITY":"0.00020240","MEAN_MOTION_DDOT":"0.0000000000000","TLE_LINE1":"1 48670U 21044AJ  21338.92664087  .00000477  00000-0  50958-4 0  9994","ARG_OF_PERICENTER":"65.6673","APOAPSIS":"548.610","COUNTRY_CODE":"US","RA_OF_ASC_NODE":"255.7054","ELEMENT_SET_NO":"999","MEAN_MOTION_DOT":"0.00000477","LAUNCH_DATE":"2021-05-26","GP_ID":"191104910","SITE":"AFETR","MEAN_MOTION":"15.06401859","FILE":"3232651","SEMIMAJOR_AXIS":"6925.343","MEAN_ANOMALY":"294.4527","NORAD_CAT_ID":"48670","OBJECT_NAME":"STARLINK-2763","OBJECT_ID":"2021-044AJ","PERIOD":"95.592","OBJECT_TYPE":"PAYLOAD","MEAN_ELEMENT_THEORY":"SGP4","TIME_SYSTEM":"UTC","RCS_SIZE":"LARGE","DECAY_DATE":null,"EPHEMERIS_TYPE":"0","EPOCH":"2021-12-04T22:14:21.771168","PERIAPSIS":"545.806","BSTAR":"0.00005095800000"},{"ELEMENT_SET_NO":"999","MEAN_MOTION_DOT":"0.00000838","SITE":"AFETR","GP_ID":"191105377","LAUNCH_DATE":"2021-05-26","MEAN_MOTION":"15.06397402","FILE":"3232651","SEMIMAJOR_AXIS":"6925.357","APOAPSIS":"548.438","COUNTRY_CODE":"US","RA_OF_ASC_NODE":"255.7212","ECCENTRICITY":"0.00017560","TLE_LINE1":"1 48671U 21044AK  21338.92296547  .00000838  00000-0  75191-4 0  9994","MEAN_MOTION_DDOT":"0.0000000000000","ARG_OF_PERICENTER":"72.0905","INCLINATION":"53.0552","CENTER_NAME":"EARTH","REF_FRAME":"TEME","CLASSIFICATION_TYPE":"U","REV_AT_EPOCH":"2935","TLE_LINE2":"2 48671  53.0552 255.7212 0001756  72.0905 288.0275 15.06397402 29352","PERIAPSIS":"546.005","BSTAR":"0.00007519100000","MEAN_ELEMENT_THEORY":"SGP4","TIME_SYSTEM":"UTC","RCS_SIZE":"LARGE","EPHEMERIS_TYPE":"0","DECAY_DATE":null,"EPOCH":"2021-12-04T22:09:04.216608","OBJECT_TYPE":"PAYLOAD","PERIOD":"95.592","OBJECT_ID":"2021-044AK","MEAN_ANOMALY":"288.0275","NORAD_CAT_ID":"48671","OBJECT_NAME":"STARLINK-2745"},{"TIME_SYSTEM":"UTC","RCS_SIZE":"LARGE","MEAN_ELEMENT_THEORY":"SGP4","EPOCH":"2021-12-04T22:03:44.826912","EPHEMERIS_TYPE":"0","DECAY_DATE":null,"PERIAPSIS":"545.755","BSTAR":"0.00001468500000","MEAN_ANOMALY":"292.9269","OBJECT_NAME":"STARLINK-2705","NORAD_CAT_ID":"48672","OBJECT_TYPE":"PAYLOAD","PERIOD":"95.592","OBJECT_ID":"2021-044AL","RA_OF_ASC_NODE":"255.7343","COUNTRY_CODE":"US","APOAPSIS":"548.676","MEAN_MOTION_DOT":"-0.00000063","ELEMENT_SET_NO":"999","FILE":"3232651","SEMIMAJOR_AXIS":"6925.350","MEAN_MOTION":"15.06399492","LAUNCH_DATE":"2021-05-26","GP_ID":"191105533","SITE":"AFETR","CENTER_NAME":"EARTH","REF_FRAME":"TEME","INCLINATION":"53.0558","TLE_LINE2":"2 48672  53.0558 255.7343 0002109  67.1942 292.9269 15.06399492 29351","REV_AT_EPOCH":"2935","CLASSIFICATION_TYPE":"U","ECCENTRICITY":"0.00021090","ARG_OF_PERICENTER":"67.1942","TLE_LINE1":"1 48672U 21044AL  21338.91926883 -.00000063  00000-0  14685-4 0  9999","MEAN_MOTION_DDOT":"0.0000000000000"},{"EPHEMERIS_TYPE":"0","DECAY_DATE":null,"EPOCH":"2021-12-04T21:58:27.037344","MEAN_ELEMENT_THEORY":"SGP4","RCS_SIZE":"LARGE","TIME_SYSTEM":"UTC","BSTAR":"-0.00007550800000","PERIAPSIS":"545.666","NORAD_CAT_ID":"48673","OBJECT_NAME":"STARLINK-2711","MEAN_ANOMALY":"292.0443","OBJECT_TYPE":"PAYLOAD","PERIOD":"95.593","OBJECT_ID":"2021-044AM","APOAPSIS":"548.827","COUNTRY_CODE":"US","RA_OF_ASC_NODE":"255.7486","SITE":"AFETR","GP_ID":"191104754","LAUNCH_DATE":"2021-05-26","SEMIMAJOR_AXIS":"6925.381","FILE":"3232651","MEAN_MOTION":"15.06389354","ELEMENT_SET_NO":"999","MEAN_MOTION_DOT":"-0.00001406","CLASSIFICATION_TYPE":"U","REV_AT_EPOCH":"2935","TLE_LINE2":"2 48673  53.0554 255.7486 0002282  68.0789 292.0443 15.06389354 29358","INCLINATION":"53.0554","CENTER_NAME":"EARTH","REF_FRAME":"TEME","TLE_LINE1":"1 48673U 21044AM  21338.91559071 -.00001406  00000-0 -75508-4 0  9995","MEAN_MOTION_DDOT":"0.0000000000000","ARG_OF_PERICENTER":"68.0789","ECCENTRICITY":"0.00022820"},{"OBJECT_TYPE":"PAYLOAD","PERIOD":"95.593","OBJECT_ID":"2021-044AN","MEAN_ANOMALY":"295.4143","OBJECT_NAME":"STARLINK-2712","NORAD_CAT_ID":"48674","PERIAPSIS":"545.984","BSTAR":"-0.00002953600000","TIME_SYSTEM":"UTC","RCS_SIZE":"LARGE","MEAN_ELEMENT_THEORY":"SGP4","EPOCH":"2021-12-04T21:53:08.682720","EPHEMERIS_TYPE":"0","DECAY_DATE":null,"ECCENTRICITY":"0.00018250","ARG_OF_PERICENTER":"64.7035","TLE_LINE1":"1 48674U 21044AN  21338.91190605 -.00000721  00000-0 -29536-4 0  9999","MEAN_MOTION_DDOT":"0.0000000000000","CENTER_NAME":"EARTH","REF_FRAME":"TEME","INCLINATION":"53.0553","REV_AT_EPOCH":"2935","TLE_LINE2":"2 48674  53.0553 255.7660 0001825  64.7035 295.4143 15.06388648 29350","CLASSIFICATION_TYPE":"U","MEAN_MOTION_DOT":"-0.00000721","ELEMENT_SET_NO":"999","SEMIMAJOR_AXIS":"6925.383","FILE":"3232651","MEAN_MOTION":"15.06388648","GP_ID":"191104598","LAUNCH_DATE":"2021-05-26","SITE":"AFETR","RA_OF_ASC_NODE":"255.7660","COUNTRY_CODE":"US","APOAPSIS":"548.512"},{"OBJECT_TYPE":"PAYLOAD","OBJECT_ID":"2021-044AP","PERIOD":"95.592","NORAD_CAT_ID":"48675","OBJECT_NAME":"STARLINK-2737","MEAN_ANOMALY":"295.4572","BSTAR":"0.00016008000000","PERIAPSIS":"545.697","EPHEMERIS_TYPE":"0","DECAY_DATE":null,"EPOCH":"2021-12-04T21:47:51.160992","MEAN_ELEMENT_THEORY":"SGP4","TIME_SYSTEM":"UTC","RCS_SIZE":"LARGE","TLE_LINE1":"1 48675U 21044AP  21338.90823103  .00002103  00000-0  16008-3 0  9998","MEAN_MOTION_DDOT":"0.0000000000000","ARG_OF_PERICENTER":"64.6646","ECCENTRICITY":"0.00022140","CLASSIFICATION_TYPE":"U","REV_AT_EPOCH":"2935","TLE_LINE2":"2 48675  53.0564 255.7895 0002214  64.6646 295.4572 15.06394604 29358","INCLINATION":"53.0564","CENTER_NAME":"EARTH","REF_FRAME":"TEME","GP_ID":"191105066","LAUNCH_DATE":"2021-05-26","SITE":"AFETR","FILE":"3232651","SEMIMAJOR_AXIS":"6925.365","MEAN_MOTION":"15.06394604","ELEMENT_SET_NO":"999","MEAN_MOTION_DOT":"0.00002103","APOAPSIS":"548.763","RA_OF_ASC_NODE":"255.7895","COUNTRY_CODE":"US"}];
